start=new Date('2022-11-07T00:00:00.000Z').valueOf();
sats=[{"GP_ID":"217055887","MEAN_MOTION":"15.06392476","SEMIMAJOR_AXIS":"6925.372","MEAN_MOTION_DDOT":"0.0000000000000","OBJECT_ID":"2021-005AF","REV_AT_EPOCH":"9984","BSTAR":"0.00068631000000","CENTER_NAME":"EARTH","FILE":"3647066","TLE_LINE1":"1 47378U 21005AF  22310.50911355  .00009954  00000-0  68631-3 0  9998","REF_FRAME":"TEME","OBJECT_NAME":"STARLINK-2098","MEAN_ANOMALY":"261.5540","COUNTRY_CODE":"US","ECCENTRICITY":"0.00015330","NORAD_CAT_ID":"47378","ELEMENT_SET_NO":"999","OBJECT_TYPE":"PAYLOAD","PERIOD":"95.593","EPOCH":"2022-11-06T12:13:07.410720","RCS_SIZE":"LARGE","TIME_SYSTEM":"UTC","APOAPSIS":"548.298","RA_OF_ASC_NODE":"94.7392","TLE_LINE2":"2 47378  53.0526  94.7392 0001533  98.5623 261.5540 15.06392476 99847","LAUNCH_DATE":"2021-01-20","SITE":"AFETR","EPHEMERIS_TYPE":"0","INCLINATION":"53.0526","MEAN_MOTION_DOT":"0.00009954","DECAY_DATE":null,"MEAN_ELEMENT_THEORY":"SGP4","ARG_OF_PERICENTER":"98.5623","CLASSIFICATION_TYPE":"U","PERIAPSIS":"546.175"},{"CENTER_NAME":"EARTH","REV_AT_EPOCH":"9984","BSTAR":"0.00010104000000","OBJECT_ID":"2021-005AG","MEAN_MOTION_DDOT":"0.0000000000000","SEMIMAJOR_AXIS":"6925.351","MEAN_MOTION":"15.06399269","GP_ID":"217062119","COUNTRY_CODE":"US","MEAN_ANOMALY":"246.3552","OBJECT_NAME":"STARLINK-2099","TLE_LINE1":"1 47379U 21005AG  22310.51647491  .00001224  00000-0  10104-3 0  9991","REF_FRAME":"TEME","FILE":"3647157","LAUNCH_DATE":"2021-01-20","TLE_LINE2":"2 47379  53.0545  94.7099 0001349 113.7578 246.3552 15.06399269 99848","RA_OF_ASC_NODE":"94.7099","APOAPSIS":"548.150","TIME_SYSTEM":"UTC","RCS_SIZE":"LARGE","EPOCH":"2022-11-06T12:23:43.432224","PERIOD":"95.592","OBJECT_TYPE":"PAYLOAD","ELEMENT_SET_NO":"999","ECCENTRICITY":"0.00013490","NORAD_CAT_ID":"47379","PERIAPSIS":"546.282","CLASSIFICATION_TYPE":"U","ARG_OF_PERICENTER":"113.7578","MEAN_ELEMENT_THEORY":"SGP4","DECAY_DATE":null,"MEAN_MOTION_DOT":"0.00001224","INCLINATION":"53.0545","EPHEMERIS_TYPE":"0","SITE":"AFETR"},{"MEAN_ELEMENT_THEORY":"SGP4","CLASSIFICATION_TYPE":"U","ARG_OF_PERICENTER":"92.9930","PERIAPSIS":"546.571","SITE":"AFETR","INCLINATION":"53.0571","EPHEMERIS_TYPE":"0","MEAN_MOTION_DOT":"0.00000164","DECAY_DATE":null,"TIME_SYSTEM":"UTC","APOAPSIS":"547.875","TLE_LINE2":"2 47380  53.0571 103.6772 0000941  92.9930 267.1167 15.06396871100688","RA_OF_ASC_NODE":"103.6772","LAUNCH_DATE":"2021-01-20","NORAD_CAT_ID":"47380","ELEMENT_SET_NO":"999","ECCENTRICITY":"0.00009410","OBJECT_TYPE":"PAYLOAD","EPOCH":"2022-11-06T17:51:29.294784","PERIOD":"95.592","RCS_SIZE":"LARGE","MEAN_ANOMALY":"267.1167","COUNTRY_CODE":"US","REF_FRAME":"TEME","TLE_LINE1":"1 47380U 21005AH  22310.74408906  .00000164  00000-0  29860-4 0  9996","FILE":"3647157","OBJECT_NAME":"STARLINK-2100","MEAN_MOTION_DDOT":"0.0000000000000","SEMIMAJOR_AXIS":"6925.358","BSTAR":"0.00002986000000","REV_AT_EPOCH":"10068","OBJECT_ID":"2021-005AH","CENTER_NAME":"EARTH","MEAN_MOTION":"15.06396871","GP_ID":"217061776"},{"MEAN_ANOMALY":"264.6553","COUNTRY_CODE":"US","TLE_LINE1":"1 47381U 21005AJ  22310.42849310 -.00003032  00000-0 -18471-3 0  9994","FILE":"3647066","REF_FRAME":"TEME","OBJECT_NAME":"STARLINK-2101","MEAN_MOTION_DDOT":"0.0000000000000","SEMIMAJOR_AXIS":"6925.336","OBJECT_ID":"2021-005AJ","BSTAR":"-0.00018471000000","REV_AT_EPOCH":"9962","CENTER_NAME":"EARTH","GP_ID":"217056136","MEAN_MOTION":"15.06404044","MEAN_ELEMENT_THEORY":"SGP4","ARG_OF_PERICENTER":"95.4570","CLASSIFICATION_TYPE":"U","PERIAPSIS":"546.385","SITE":"AFETR","EPHEMERIS_TYPE":"0","INCLINATION":"53.0540","MEAN_MOTION_DOT":"-0.00003032","DECAY_DATE":null,"TIME_SYSTEM":"UTC","APOAPSIS":"548.018","RA_OF_ASC_NODE":"110.1722","TLE_LINE2":"2 47381  53.0540 110.1722 0001179  95.4570 264.6553 15.06404044 99629","LAUNCH_DATE":"2021-01-20","ECCENTRICITY":"0.00011790","NORAD_CAT_ID":"47381","ELEMENT_SET_NO":"999","OBJECT_TYPE":"PAYLOAD","PERIOD":"95.592","EPOCH":"2022-11-06T10:17:01.803840","RCS_SIZE":"LARGE"},{"MEAN_ANOMALY":"245.4541","COUNTRY_CODE":"US","TLE_LINE1":"1 47382U 21005AK  22310.73671515  .00000399  00000-0  45691-4 0  9995","FILE":"3647158","REF_FRAME":"TEME","OBJECT_NAME":"STARLINK-2102","MEAN_MOTION_DDOT":"0.0000000000000","SEMIMAJOR_AXIS":"6925.360","CENTER_NAME":"EARTH","OBJECT_ID":"2021-005AK","REV_AT_EPOCH":"10067","BSTAR":"0.00004569100000","GP_ID":"217062129","MEAN_MOTION":"15.06396402","MEAN_ELEMENT_THEORY":"SGP4","PERIAPSIS":"546.334","ARG_OF_PERICENTER":"114.6582","CLASSIFICATION_TYPE":"U","EPHEMERIS_TYPE":"0","INCLINATION":"53.0547","SITE":"AFETR","DECAY_DATE":null,"MEAN_MOTION_DOT":"0.00000399","APOAPSIS":"548.115","TIME_SYSTEM":"UTC","LAUNCH_DATE":"2021-01-20","RA_OF_ASC_NODE":"103.7191","TLE_LINE2":"2 47382  53.0547 103.7191 0001286 114.6582 245.4541 15.06396402100671","OBJECT_TYPE":"PAYLOAD","NORAD_CAT_ID":"47382","ELEMENT_SET_NO":"999","ECCENTRICITY":"0.00012860","RCS_SIZE":"LARGE","EPOCH":"2022-11-06T17:40:52.188960","PERIOD":"95.592"},{"MEAN_MOTION_DOT":"0.00000867","DECAY_DATE":null,"SITE":"AFETR","EPHEMERIS_TYPE":"0","INCLINATION":"53.0546","ARG_OF_PERICENTER":"94.4680","CLASSIFICATION_TYPE":"U","PERIAPSIS":"546.372","MEAN_ELEMENT_THEORY":"SGP4","PERIOD":"95.592","EPOCH":"2022-11-06T18:07:22.065600","RCS_SIZE":"LARGE","NORAD_CAT_ID":"47383","ECCENTRICITY":"0.00012220","ELEMENT_SET_NO":"999","OBJECT_TYPE":"PAYLOAD","RA_OF_ASC_NODE":"93.6297","TLE_LINE2":"2 47383  53.0546  93.6297 0001222  94.4680 265.6449 15.06398438 99881","LAUNCH_DATE":"2021-01-20","TIME_SYSTEM":"UTC","APOAPSIS":"548.065","OBJECT_NAME":"STARLINK-2103","TLE_LINE1":"1 47383U 21005AL  22310.75511650  .00000867  00000-0  77076-4 0  9993","REF_FRAME":"TEME","FILE":"3647158","COUNTRY_CODE":"US","MEAN_ANOMALY":"265.6449","GP_ID":"217061791","MEAN_MOTION":"15.06398438","OBJECT_ID":"2021-005AL","REV_AT_EPOCH":"9988","BSTAR":"0.00007707600000","CENTER_NAME":"EARTH","MEAN_MOTION_DDOT":"0.0000000000000","SEMIMAJOR_AXIS":"6925.353"},{"MEAN_MOTION_DDOT":"0.0000000000000","SEMIMAJOR_AXIS":"6925.373","CENTER_NAME":"EARTH","BSTAR":"0.00000261240000","REV_AT_EPOCH":"10034","OBJECT_ID":"2021-005AM","MEAN_MOTION":"15.06392076","GP_ID":"217061792","MEAN_ANOMALY":"251.8522","COUNTRY_CODE":"US","TLE_LINE1":"1 47384U 21005AM  22310.72200293 -.00000243  00000-0  26124-5 0  9997","REF_FRAME":"TEME","FILE":"3647158","OBJECT_NAME":"STARLINK-2104","APOAPSIS":"548.212","TIME_SYSTEM":"UTC","LAUNCH_DATE":"2021-01-20","TLE_LINE2":"2 47384  53.0542 104.0103 0001406 108.2621 251.8522 15.06392076100349","RA_OF_ASC_NODE":"104.0103","OBJECT_TYPE":"PAYLOAD","NORAD_CAT_ID":"47384","ECCENTRICITY":"0.00014060","ELEMENT_SET_NO":"999","RCS_SIZE":"LARGE","PERIOD":"95.593","EPOCH":"2022-11-06T17:19:41.053152","MEAN_ELEMENT_THEORY":"SGP4","PERIAPSIS":"546.264","CLASSIFICATION_TYPE":"U","ARG_OF_PERICENTER":"108.2621","INCLINATION":"53.0542","EPHEMERIS_TYPE":"0","SITE":"AFETR","DECAY_DATE":null,"MEAN_MOTION_DOT":"-0.00000243"},{"MEAN_ANOMALY":"259.0235","COUNTRY_CODE":"US","TLE_LINE1":"1 47385U 21005AN  22310.45290271 -.00001129  00000-0 -56959-4 0  9996","REF_FRAME":"TEME","FILE":"3647066","OBJECT_NAME":"STARLINK-2105","MEAN_MOTION_DDOT":"0.0000000000000","SEMIMAJOR_AXIS":"6925.391","CENTER_NAME":"EARTH","OBJECT_ID":"2021-005AN","REV_AT_EPOCH":"9969","BSTAR":"-0.00005695900000","GP_ID":"217055637","MEAN_MOTION":"15.06386008","MEAN_ELEMENT_THEORY":"SGP4","PERIAPSIS":"546.335","ARG_OF_PERICENTER":"101.0904","CLASSIFICATION_TYPE":"U","EPHEMERIS_TYPE":"0","INCLINATION":"53.0543","SITE":"AFETR","DECAY_DATE":null,"MEAN_MOTION_DOT":"-0.00001129","APOAPSIS":"548.178","TIME_SYSTEM":"UTC","LAUNCH_DATE":"2021-01-20","RA_OF_ASC_NODE":"104.9865","TLE_LINE2":"2 47385  53.0543 104.9865 0001331 101.0904 259.0235 15.06386008 99691","OBJECT_TYPE":"PAYLOAD","ECCENTRICITY":"0.00013310","NORAD_CAT_ID":"47385","ELEMENT_SET_NO":"999","RCS_SIZE":"LARGE","PERIOD":"95.593","EPOCH":"2022-11-06T10:52:10.794144"},{"RCS_SIZE":"LARGE","EPOCH":"2022-11-06T19:32:20.812128","PERIOD":"95.593","OBJECT_TYPE":"PAYLOAD","ECCENTRICITY":"0.00012430","ELEMENT_SET_NO":"999","NORAD_CAT_ID":"47386","LAUNCH_DATE":"2021-01-20","RA_OF_ASC_NODE":"103.3702","TLE_LINE2":"2 47386  53.0552 103.3702 0001243 115.3253 244.7865 15.06385072100370","APOAPSIS":"548.120","TIME_SYSTEM":"UTC","DECAY_DATE":null,"MEAN_MOTION_DOT":"-0.00001563","EPHEMERIS_TYPE":"0","INCLINATION":"53.0552","SITE":"AFETR","PERIAPSIS":"546.398","ARG_OF_PERICENTER":"115.3253","CLASSIFICATION_TYPE":"U","MEAN_ELEMENT_THEORY":"SGP4","GP_ID":"217062132","MEAN_MOTION":"15.06385072","CENTER_NAME":"EARTH","OBJECT_ID":"2021-005AP","REV_AT_EPOCH":"10037","BSTAR":"-0.00008610800000","MEAN_MOTION_DDOT":"0.0000000000000","SEMIMAJOR_AXIS":"6925.394","OBJECT_NAME":"STARLINK-2106","FILE":"3647158","TLE_LINE1":"1 47386U 21005AP  22310.81412977 -.00001563  00000-0 -86108-4 0  9997","REF_FRAME":"TEME","COUNTRY_CODE":"US","MEAN_ANOMALY":"244.7865"},{"OBJECT_TYPE":"PAYLOAD","ECCENTRICITY":"0.00013350","NORAD_CAT_ID":"47387","ELEMENT_SET_NO":"999","RCS_SIZE":"LARGE","PERIOD":"95.592","EPOCH":"2022-11-06T12:50:16.657728","APOAPSIS":"548.142","TIME_SYSTEM":"UTC","LAUNCH_DATE":"2021-01-20","TLE_LINE2":"2 47387  53.0544 134.6175 0001335 103.3140 256.7998 15.06398691 99285","RA_OF_ASC_NODE":"134.6175","INCLINATION":"53.0544","EPHEMERIS_TYPE":"0","SITE":"AFETR","DECAY_DATE":null,"MEAN_MOTION_DOT":"0.00000050","MEAN_ELEMENT_THEORY":"SGP4","PERIAPSIS":"546.293","CLASSIFICATION_TYPE":"U","ARG_OF_PERICENTER":"103.3140","MEAN_MOTION":"15.06398691","GP_ID":"217054636","MEAN_MOTION_DDOT":"0.0000000000000","SEMIMAJOR_AXIS":"6925.353","CENTER_NAME":"EARTH","BSTAR":"0.00002223500000","REV_AT_EPOCH":"9928","OBJECT_ID":"2021-005AQ","TLE_LINE1":"1 47387U 21005AQ  22310.53491502  .00000050  00000-0  22235-4 0  9997","REF_FRAME":"TEME","FILE":"3647066","OBJECT_NAME":"STARLINK-2108","MEAN_ANOMALY":"256.7998","COUNTRY_CODE":"US"}];
